NORAD_CAT_ID,OBJECT_NAME,OBJECT_TYPE,EPOCH,MEAN_MOTION,ECCENTRICITY,INCLINATION,RA_OF_ASC_NODE,ARG_OF_PERICENTER,MEAN_ANOMALY,BSTAR,MEAN_MOTION_DOT,MEAN_MOTION_DDOT,TLE_LINE0,TLE_LINE1,TLE_LINE2,SEMIMAJOR_AXIS,PERIOD,APOGEE,PERIGEE,DECAYED
53000.0,STARLINK-4194,PAYLOAD,2023-11-20 13:35:50,15.08843391,0.0001891,53.2197,265.5804,85.3259,274.7949,6.0676e-05,6.78e-06,0.0,0 STARLINK-4194,1 53000U 22076Q   23324.56656174  .00000678  00000-0  60676-4 0  9999,2 53000  53.2197 265.5804 0001891  85.3259 274.7949 15.08843391 76016,6917.87,95.437,541.043,538.427,0.0
53000.0,STARLINK-4194,PAYLOAD,2023-11-21 05:29:41,15.08853519,0.0001552,53.2173,262.6046,91.3428,268.7742,8.7544e-05,1.106e-05,0.0,0 STARLINK-4194,1 53000U 22076Q   23325.22895091  .00001106  00000-0  87544-4 0  9996,2 53000  53.2173 262.6046 0001552  91.3428 268.7742 15.08853519 76584,6917.839,95.437,540.778,538.63,0.0
53000.0,STARLINK-4194,PAYLOAD,2023-11-21 19:48:10,15.08840073,0.0001626,53.2187,259.9288,94.4828,265.635,6.3266e-05,7.19e-06,0.0,0 STARLINK-4194,1 53000U 22076Q   23325.82512056  .00000719  00000-0  63266-4 0  9993,2 53000  53.2187 259.9288 0001626  94.4828 265.6350 15.08840073 76207,6917.88,95.438,540.87,538.62,0.0
53000.0,STARLINK-4194,PAYLOAD,2023-11-22 02:09:42,15.08841158,0.0001622,53.2166,258.742,84.3421,275.7756,3.9363e-05,3.38e-06,0.0,0 STARLINK-4194,1 53000U 22076Q   23326.09008017  .00000338  00000-0  39363-4 0  9998,2 53000  53.2166 258.7420 0001622  84.3421 275.7756 15.08841158 76715,6917.877,95.437,540.864,538.62,0.0
53000.0,STARLINK-4194,PAYLOAD,2023-11-22 05:20:28,15.08848495,0.000175,53.2181,258.1429,98.4846,261.6344,0.00018179,2.607e-05,0.0,0 STARLINK-4194,1 53000U 22076Q   23326.22255600  .00002607  00000-0  18179-3 0  9997,2 53000  53.2181 258.1429 0001750  98.4846 261.6344 15.08848495 76734,6917.854,95.437,540.93,538.509,0.0
53000.0,STARLINK-4194,PAYLOAD,2023-11-23 05:11:15,15.08857081,0.000156,53.2171,253.6802,113.3367,246.7789,0.00019848,2.874e-05,0.0,0 STARLINK-4194,1 53000U 22076Q   23327.21614703  .00002874  00000-0  19848-3 0  9990,2 53000  53.2171 253.6802 0001560 113.3367 246.7789 15.08857081 76415,6917.828,95.436,540.772,538.614,0.0
53000.0,STARLINK-4194,PAYLOAD,2023-11-23 19:29:44,15.08830816,0.0001901,53.2174,251.004,112.718,247.4013,-0.00014742,-2.633e-05,0.0,0 STARLINK-4194,1 53000U 22076Q   23327.81232205 -.00002633  00000-0 -14742-3 0  9992,2 53000  53.2174 251.0040 0001901 112.7180 247.4013 15.08830816 76975,6917.908,95.438,541.089,538.458,0.0
53000.0,STARLINK-4194,PAYLOAD,2023-11-23 22:40:31,15.08829561,0.000166,53.2171,250.4096,119.6842,240.4316,-0.00012419,-2.263e-05,0.0,0 STARLINK-4194,1 53000U 22076Q   23327.94480438 -.00002263  00000-0 -12419-3 0  9997,2 53000  53.2171 250.4096 0001660 119.6842 240.4316 15.08829561 76524,6917.912,95.438,540.926,538.629,0.0
53000.0,STARLINK-4194,PAYLOAD,2023-11-24 01:51:17,15.08828898,0.0001472,53.2173,249.8153,109.1586,250.9566,-0.00011967,-2.191e-05,0.0,0 STARLINK-4194,1 53000U 22076Q   23328.07728597 -.00002191  00000-0 -11967-3 0  9990,2 53000  53.2173 249.8153 0001472 109.1586 250.9566 15.08828898 76549,6917.914,95.438,540.798,538.761,0.0
53000.0,STARLINK-4194,PAYLOAD,2023-11-24 17:45:08,15.08834421,0.0001356,53.2175,246.8419,107.065,253.0491,5.1739e-05,5.36e-06,0.0,0 STARLINK-4194,1 53000U 22076Q   23328.73968689  .00000536  00000-0  51739-4 0  9992,2 53000  53.2175 246.8419 0001356 107.0650 253.0491 15.08834421 76644,6917.897,95.438,540.701,538.824,0.0
53000.0,STARLINK-4194,PAYLOAD,2023-11-25 00:06:39,15.08882915,0.0001454,53.2169,245.6536,114.1728,245.9417,0.00056871,8.785e-05,0.0,0 STARLINK-4194,1 53000U 22076Q   23329.00461966  .00008785  00000-0  56871-3 0  9994,2 53000  53.2169 245.6536 0001454 114.1728 245.9417 15.08882915 77154,6917.749,95.435,540.62,538.608,0.0
53000.0,STARLINK-4194,PAYLOAD,2023-11-25 22:22:04,15.08837073,0.0001587,53.2158,241.4883,115.6407,244.4749,1.9516e-05,2.3e-07,0.0,0 STARLINK-4194,1 53000U 22076Q   23329.93199333  .00000023  00000-0  19516-4 0  9995,2 53000  53.2158 241.4883 0001587 115.6407 244.4749 15.08837073 76828,6917.889,95.438,540.852,538.656,0.0
53000.0,STARLINK-4194,PAYLOAD,2023-11-25 23:57:27,15.08825705,0.0001261,53.2158,241.1965,95.4207,264.6929,-0.00012558,-2.285e-05,0.0,0 STARLINK-4194,1 53000U 22076Q   23329.99823969 -.00002285  00000-0 -12558-3 0  9992,2 53000  53.2158 241.1965 0001261  95.4207 264.6929 15.08825705 77305,6917.924,95.438,540.661,538.917,0.0
53000.0,STARLINK-4194,PAYLOAD,2023-11-26 22:12:52,15.08825588,0.0001622,53.2167,237.0333,57.9203,302.1947,-0.00057782,-9.469e-05,0.0,0 STARLINK-4194,1 53000U 22076Q   23330.92560996 -.00009469  00000-0 -57782-3 0  9994,2 53000  53.2167 237.0333 0001622  57.9203 302.1947 15.08825588 76977,6917.924,95.438,540.912,538.667,0.0
53000.0,STARLINK-4194,PAYLOAD,2023-11-27 02:59:02,15.08827212,0.0001422,53.2176,236.1388,80.0201,280.0951,-0.0004784,-7.891e-05,0.0,0 STARLINK-4194,1 53000U 22076Q   23331.12432981 -.00007891  00000-0 -47840-3 0  9990,2 53000  53.2176 236.1388 0001422  80.0201 280.0951 15.08827212 77471,6917.919,95.438,540.768,538.801,0.0
53000.0,STARLINK-4194,PAYLOAD,2023-11-27 22:03:39,15.08835956,9.77e-05,53.2183,232.5701,105.5303,254.5797,0.00021032,3.061e-05,0.0,0 STARLINK-4194,1 53000U 22076Q   23331.91921117  .00003061  00000-0  21032-3 0  9999,2 53000  53.2183 232.5701 0000977 105.5303 254.5797 15.08835956 77128,6917.893,95.438,540.434,539.082,0.0
53000.0,STARLINK-4194,PAYLOAD,2023-11-28 02:49:48,15.08854065,0.0001274,53.2174,231.6772,93.7855,266.3283,0.00051258,7.882e-05,0.0,0 STARLINK-4194,1 53000U 22076Q   23332.11792454  .00007882  00000-0  51258-3 0  9990,2 53000  53.2174 231.6772 0001274  93.7855 266.3283 15.08854065 77625,6917.837,95.437,540.584,538.821,0.0
53000.0,STARLINK-4194,PAYLOAD,2023-11-28 21:54:26,15.08847146,0.0001641,53.2196,228.1023,134.7171,225.3955,0.00029178,4.36e-05,0.0,0 STARLINK-4194,1 53000U 22076Q   23332.91280749  .00004360  00000-0  29178-3 0  9991,2 53000  53.2196 228.1023 0001641 134.7171 225.3955 15.08847146 77278,6917.859,95.437,540.859,538.588,0.0
53000.0,STARLINK-4194,PAYLOAD,2023-11-28 23:29:49,15.08860392,0.0001371,53.2179,227.811,123.0927,237.0197,0.00055466,8.555e-05,0.0,0 STARLINK-4194,1 53000U 22076Q   23332.97904337  .00008555  00000-0  55466-3 0  9992,2 53000  53.2179 227.8110 0001371 123.0927 237.0197 15.08860392 77751,6917.818,95.436,540.631,538.735,0.0
53000.0,STARLINK-4194,PAYLOAD,2023-11-29 20:09:50,15.0884455,0.0001437,53.217,223.9472,97.0262,263.0893,-0.00010714,-1.993e-05,0.0,0 STARLINK-4194,1 53000U 22076Q   23333.84016850 -.00001993  00000-0 -10714-3 0  9991,2 53000  53.2170 223.9472 0001437  97.0262 263.0893 15.08844550 77889,6917.866,95.437,540.726,538.737,0.0
53000.0,STARLINK-4194,PAYLOAD,2023-11-30 21:36:01,15.08838022,0.0001626,53.2171,219.1833,132.5071,227.6058,8.4719e-05,1.06e-05,0.0,0 STARLINK-4194,1 53000U 22076Q   23334.90001167  .00001060  00000-0  84719-4 0  9994,2 53000  53.2171 219.1833 0001626 132.5071 227.6058 15.08838022 78046,6917.886,95.438,540.876,538.627,0.0
53000.0,STARLINK-4194,PAYLOAD,2023-12-01 21:26:47,15.08849604,0.0001362,53.2151,214.7232,108.5672,251.5469,0.00031778,4.774e-05,0.0,0 STARLINK-4194,1 53000U 22076Q   23335.89361043  .00004774  00000-0  31778-3 0  9996,2 53000  53.2151 214.7232 0001362 108.5672 251.5469 15.08849604 77729,6917.851,95.437,540.658,538.774,0.0
53000.0,STARLINK-4194,PAYLOAD,2023-12-01 23:02:10,15.08856064,0.0001517,53.2165,214.4326,116.0755,244.0393,0.00045104,6.901e-05,0.0,0 STARLINK-4194,1 53000U 22076Q   23335.95984839  .00006901  00000-0  45104-3 0  9999,2 53000  53.2165 214.4326 0001517 116.0755 244.0393 15.08856064 78208,6917.831,95.437,540.746,538.647,0.0
53000.0,STARLINK-4194,PAYLOAD,2023-12-02 19:42:11,15.08844327,0.0001411,53.2159,210.5687,118.5143,241.5991,0.00015306,2.149e-05,0.0,0 STARLINK-4194,1 53000U 22076Q   23336.82097129  .00002149  00000-0  15306-3 0  9994,2 53000  53.2159 210.5687 0001411 118.5143 241.5991 15.08844327 78338,6917.867,95.437,540.708,538.756,0.0
53000.0,STARLINK-4194,PAYLOAD,2023-12-02 22:52:58,15.0883903,9.8e-05,53.2156,209.9715,81.7197,278.3906,-6.1592e-05,-1.268e-05,0.0,0 STARLINK-4194,1 53000U 22076Q   23336.95345240 -.00001268  00000-0 -61592-4 0  9990,2 53000  53.2156 209.9715 0000980  81.7197 278.3906 15.08839030 77887,6917.883,95.438,540.426,539.07,0.0
53000.0,STARLINK-4194,PAYLOAD,2023-12-03 19:33:00,15.0882124,0.0001096,53.2157,206.1059,97.0019,263.1098,-0.00026207,-4.454e-05,0.0,0 STARLINK-4194,1 53000U 22076Q   23337.81458450 -.00004454  00000-0 -26207-3 0  9997,2 53000  53.2157 206.1059 0001096  97.0019 263.1098 15.08821240 78485,6917.938,95.439,540.561,539.045,0.0
53000.0,STARLINK-4194,PAYLOAD,2023-12-04 00:19:09,15.08826626,0.0001173,53.2163,205.2111,83.4113,276.7013,-0.00011054,-2.046e-05,0.0,0 STARLINK-4194,1 53000U 22076Q   23338.01330702 -.00002046  00000-0 -11054-3 0  9998,2 53000  53.2163 205.2111 0001173  83.4113 276.7013 15.08826626 78043,6917.921,95.438,540.598,538.975,0.0
53000.0,STARLINK-4194,PAYLOAD,2023-12-05 00:09:56,15.08835214,0.0001207,53.2173,200.7523,83.0968,277.0161,0.00019279,2.781e-05,0.0,0 STARLINK-4194,1 53000U 22076Q   23339.00690512  .00002781  00000-0  19279-3 0  9997,2 53000  53.2173 200.7523 0001207  83.0968 277.0161 15.08835214 78662,6917.895,95.438,540.595,538.925,0.0
53000.0,STARLINK-4194,PAYLOAD,2023-12-07 14:09:58,15.08845958,0.0001094,53.2155,189.1555,88.2301,271.8817,6.1267e-05,6.88e-06,0.0,0 STARLINK-4194,1 53000U 22076Q   23341.59025927  .00000688  00000-0  61267-4 0  9995,2 53000  53.2155 189.1555 0001094  88.2301 271.8817 15.08845958 78586,6917.862,95.437,540.484,538.97,0.0
53000.0,STARLINK-4194,PAYLOAD,2023-12-07 23:42:17,15.08846384,9.73e-05,53.2169,187.3722,84.0878,276.0225,5.838e-05,6.42e-06,0.0,0 STARLINK-4194,1 53000U 22076Q   23341.98769712  .00000642  00000-0  58380-4 0  9997,2 53000  53.2169 187.3722 0000973  84.0878 276.0225 15.08846384 78646,6917.861,95.437,540.399,539.053,0.0
